ONEWEB-0029             
1 45445U 20020X   25110.03022432  .00000015  00000+0  65518-5 0  9996
2 45445  87.8798 105.4097 0002076  84.0773 276.0591 13.11416350247201
ONEWEB-0068             
1 45446U 20020Y   25109.93515699 -.00000537  00000+0 -15507-2 0  9997
2 45446  87.8793 105.4165 0002052  83.2234 276.9128 13.11417108247128
ONEWEB-0046             
1 45447U 20020Z   25110.46091126 -.00000292  00000+0 -86060-3 0  9993
2 45447  87.8798 105.3208 0002267  92.1388 268.0000 13.11417194247214
ONEWEB-0063             
1 45448U 20020AA  25110.03194156  .00000044  00000+0  88954-4 0  9992
2 45448  87.8797 105.4053 0002158  93.2131 266.9243 13.11419008247234
ONEWEB-0019             
1 45449U 20020AB  25109.47242107 -.00000507  00000+0 -14667-2 0  9993
2 45449  87.8799 105.5323 0001727  93.9287 266.2038 13.11415135247005
ONEWEB-0094             
1 45450U 20020AC  25110.46868382  .00000082  00000+0  17680-3 0  9990
2 45450  87.9019  90.0182 0002095  85.5758 274.5613 13.17649317250645
ONEWEB-0087             
1 45451U 20020AD  25110.49976184  .00000414  00000+0  11320-2 0  9997
2 45451  87.8789 105.2683 0002168  81.8082 278.3292 13.11418074247193
ONEWEB-0082             
1 45452U 20020AE  25110.03870767  .00000344  00000+0  93555-3 0  9991
2 45452  87.8796 105.3795 0001919  83.2610 276.8736 13.11419784247222
ONEWEB-0050             
1 45453U 20020AF  25110.04052579 -.00002350  00000+0 -24498-3 0  9997
2 45453  87.9966 310.1690 0004469  76.4636 283.7090 14.90310955277375
ONEWEB-0034             
1 45454U 20020AG  25110.44224959  .00000494  00000+0  13592-2 0  9992
2 45454  87.8792 105.3186 0001981  89.6415 270.4940 13.11416262247197
ONEWEB-0060             
1 45455U 20020AH  25110.48475199 -.00000459  00000+0 -13307-2 0  9998
2 45455  87.8799 105.3356 0002058  91.4558 268.6806 13.11417894247157
ONEWEB-0086             
1 45456U 20020AJ  25109.93359141 -.00000508  00000+0 -14694-2 0  9990
2 45456  87.8793 105.4189 0002215  79.9356 280.2022 13.11417686247136
ONEWEB-0088             
1 45457U 20020AK  25110.06413794  .00000003  00000+0 -28703-4 0  9999
2 45457  87.8785 105.3452 0002163  88.0891 272.0485 13.11414802247091
ONEWEB-0102             
1 47258U 20100A   25110.39971284 -.00000147  00000+0 -44284-3 0  9999
2 47258  87.8849  74.8013 0001838  85.4316 274.7022 13.12442231209279
ONEWEB-0109             
1 47259U 20100B   25110.40780623  .00000164  00000+0  42150-3 0  9994
2 47259  87.8849  74.7680 0001840  85.0635 275.0703 13.12444993209101
ONEWEB-0110             
1 47260U 20100C   25110.43376682  .00000404  00000+0  10863-2 0  9997
2 47260  87.8843  74.7506 0001835  80.1554 279.9782 13.12443067209273
ONEWEB-0111             
1 47261U 20100D   25110.38832458 -.00000562  00000+0 -15990-2 0  9993
2 47261  87.8848  74.7709 0001992  84.3931 275.7425 13.12442202209103
ONEWEB-0114             
1 47262U 20100E   25110.87660162  .00000329  00000+0  87813-3 0  9992
2 47262  87.8846  74.6761 0001782  92.6789 267.4543 13.12443743209121
ONEWEB-0117             
1 47263U 20100F   25110.86846972  .00000117  00000+0  28930-3 0  9997
2 47263  87.8848  74.6664 0001954  82.0293 278.1057 13.12445228209130
ONEWEB-0118             
1 47264U 20100G   25110.44348782  .00000098  00000+0  23779-3 0  9992
2 47264  87.8848  74.7526 0002049  94.1870 265.9493 13.12443513209278
ONEWEB-0119             
1 47265U 20100H   25110.39482783 -.00000303  00000+0 -87813-3 0  9997
2 47265  87.8850  74.8016 0001909  85.3821 274.7525 13.12444711209241
ONEWEB-0120             
1 47266U 20100J   25110.41768759  .00000409  00000+0  11017-2 0  9998
2 47266  87.8849  74.7912 0001882  86.7264 273.4080 13.12445105209273
ONEWEB-0121             
1 47267U 20100K   25110.86361402 -.00000036  00000+0 -13511-3 0  9992
2 47267  87.8846  74.6769 0001925  78.8270 281.3075 13.12442980209244
ONEWEB-0122             
1 47268U 20100L   25110.40118747 -.00000071  00000+0 -23319-3 0  9991
2 47268  87.8842  74.7745 0001799  80.9316 279.2016 13.12445462209092
ONEWEB-0123             
1 47269U 20100M   25110.39644826 -.00000187  00000+0 -55455-3 0  9996
2 47269  87.8848  74.7999 0002017  85.9432 274.1927 13.12445056209238
ONEWEB-0124             
1 47270U 20100N   25110.38509028 -.00000321  00000+0 -92761-3 0  9992
2 47270  87.8847  74.8003 0002121  79.5621 280.5746 13.12444664209112
ONEWEB-0125             
1 47271U 20100P   25110.43863309  .00000262  00000+0  69420-3 0  9992
2 47271  87.8849  74.7515 0002274  84.3517 275.7870 13.12442830209183
ONEWEB-0126             
1 47272U 20100Q   25110.38645833  .00000466  00000+0  12507-2 0  9996
2 47272  87.8868  74.7635 0001753  88.8475 271.2854 13.12921050209247
ONEWEB-0127             
1 47273U 20100R   25110.42565850  .00000565  00000+0  15350-2 0  9991
2 47273  87.8848  74.7872 0001807  86.8066 273.3270 13.12442645209279
ONEWEB-0128             
1 47274U 20100S   25110.82954308 -.00000008  00000+0 -58643-4 0  9994
2 47274  87.8857  74.7287 0001774  77.2427 282.8899 13.12439618209344
ONEWEB-0129             
1 47275U 20100T   25109.43620370  .00000388  00000+0  10442-2 0  9991
2 47275  87.8845  74.9550 0001359 123.5326 236.5933 13.12442345209097
ONEWEB-0130             
1 47276U 20100U   25110.45484694  .00001052  00000+0  28878-2 0  9994
2 47276  87.8854  74.7533 0001665  94.5305 265.6013 13.12437814209199
ONEWEB-0131             
1 47277U 20100V   25109.84169445 -.00000437  00000+0 -12495-2 0  9996
2 47277  87.8849  74.9001 0001955  82.1943 277.9407 13.12442711209150
ONEWEB-0132             
1 47278U 20100W   25110.86199001 -.00000093  00000+0 -29285-3 0  9996
2 47278  87.8849  74.6980 0002130  80.0650 280.0719 13.12444755209186
ONEWEB-0133             
1 47279U 20100X   25110.87807495  .00000403  00000+0  10842-2 0  9992
2 47279  87.8845  74.6758 0001888  78.8276 281.3065 13.12443987209346
ONEWEB-0134             
1 47280U 20100Y   25110.38995051 -.00000590  00000+0 -16762-2 0  9992
2 47280  87.8841  74.7582 0001709  80.5454 279.5868 13.12442476209252
ONEWEB-0135             
1 47281U 20100Z   25110.43702391  .00000363  00000+0  97416-3 0  9994
2 47281  87.8849  74.7822 0001601  72.7775 287.3528 13.12441546209288
ONEWEB-0136             
1 47282U 20100AA  25110.38022913 -.00000282  00000+0 -81915-3 0  9993
2 47282  87.8848  74.7604 0001452  81.1947 278.9346 13.12443329209202
ONEWEB-0137             
1 47283U 20100AB  25110.41428555  .00000321  00000+0  85761-3 0  9995
2 47283  87.8845  74.7640 0002016  89.3067 270.8292 13.12445624209111
ONEWEB-0138             
1 47284U 20100AC  25110.85064511 -.00000361  00000+0 -10396-2 0  9999
2 47284  87.8844  74.6890 0001887  84.1535 275.9808 13.12445192209259
ONEWEB-0139             
1 47285U 20100AD  25110.43228252  .00000430  00000+0  11601-2 0  9993
2 47285  87.8850  74.7599 0001963  83.7519 276.3833 13.12444155209279
ONEWEB-0140             
1 47286U 20100AE  25110.38670885 -.00000379  00000+0 -10884-2 0  9997
2 47286  87.8844  74.7581 0001839  83.7230 276.4108 13.12444772209222
ONEWEB-0141             
1 47287U 20100AF  25109.89833877  .00000363  00000+0  97364-3 0  9994
2 47287  87.8844  74.8720 0002111  93.4567 266.6803 13.12443694209151
ONEWEB-0142             
1 47288U 20100AG  25110.87833413  .00000398  00000+0  10714-2 0  9992
2 47288  87.8856  74.6689 0001862  92.1233 268.0108 13.12448021209271
ONEWEB-0143             
1 47289U 20100AH  25110.43052063  .00000451  00000+0  12183-2 0  9991
2 47289  87.8847  74.7705 0001949  83.8103 276.3247 13.12443449209197
ONEWEB-0144             
1 47290U 20100AJ  25110.40295531 -.00000014  00000+0 -74259-4 0  9990
2 47290  87.8844  74.7579 0001746  91.8224 268.3104 13.12445186209118
ONEWEB-0145             
1 47291U 20100AK  25110.44999505 -.00000134  00000+0 -40772-3 0  9992
2 47291  87.8846  74.7739 0001914  88.3055 271.8293 13.12440924209314
ONEWEB-0146             
1 47292U 20100AL  25109.83683625 -.00000122  00000+0 -37464-3 0  9998
2 47292  87.8846  74.8824 0002220  75.4692 284.6683 13.12440415209147
ONEWEB-0147             
1 47293U 20100AM  25110.41267694  .00000323  00000+0  86351-3 0  9999
2 47293  87.8842  74.7493 0001696  79.4233 280.7086 13.12445750209114
ONEWEB-0115             
1 48042U 21025A   25109.78062698 -.00000237  00000+0 -68370-3 0  9991
2 48042  87.8976  44.3602 0001951  79.6805 280.4544 13.13471693198019
ONEWEB-0152             
1 48043U 21025B   25110.32743294  .00000264  00000+0  68728-3 0  9997
2 48043  87.8980  44.2617 0002000  76.8392 283.2961 13.13470012198058
ONEWEB-0153             
1 48044U 21025C   25110.38158275 -.00000649  00000+0 -18125-2 0  9997
2 48044  87.8985  44.2465 0001936  81.1440 278.9908 13.13470554198058
ONEWEB-0154             
1 48045U 21025D   25110.30203872  .00001040  00000+0  28124-2 0  9998
2 48045  87.8980  44.2656 0002000  82.0587 278.0769 13.13463489198001
ONEWEB-0116             
1 48046U 21025E   25110.18860892  .00000481  00000+0  12821-2 0  9991
2 48046  87.8983  44.2646 0001972  78.5877 281.5474 13.13473858198129
ONEWEB-0150             
1 48047U 21025F   25109.78401253 -.00000288  00000+0 -82389-3 0  9992
2 48047  87.8975  44.3461 0001942  86.0746 274.0605 13.13471746197961
ONEWEB-0107             
1 48048U 21025G   25109.78571305  .00000047  00000+0  94481-4 0  9997
2 48048  87.8976  44.3438 0001680  89.3946 270.7376 13.13473321197941
ONEWEB-0101             
1 48049U 21025H   25109.74849347  .00000033  00000+0  55145-4 0  9997
2 48049  87.8983  44.3852 0001753  78.2892 281.8434 13.13470353197915
ONEWEB-0113             
1 48050U 21025J   25110.31305666 -.00000091  00000+0 -28296-3 0  9997
2 48050  87.8980  44.2416 0001982  80.7341 279.4012 13.13990540198078
ONEWEB-0112             
1 48051U 21025K   25110.32403456 -.00000184  00000+0 -53841-3 0  9992
2 48051  87.8976  44.2339 0001983  83.5306 276.6049 13.13470084198098
